0 FENGYUN 1C DEB
1 33638U 99025DDX 13280.94945817  .00000962  00000-0  10189-2 0  1719
2 33638 098.4544 326.4475 0288577 149.5403 212.2652 13.59710668309720
0 FENGYUN 1C DEB
1 33638U 99025DDX 13294.93066295  .00001007  00000-0  10645-2 0  1737
2 33638 098.4533 338.5304 0287995 112.7903 250.4678 13.59740594311628
